[ {"OBJECT_NAME": "STARLINK-34390", "OBJECT_ID": "2025-139C", "EPOCH": "2026-06-11T21:57:03.725280", "MEAN_MOTION": 15.34414511, "ECCENTRICITY": 0.00012978, "INCLINATION": 53.1597, "RA_OF_ASC_NODE": 47.7296, "ARG_OF_PERICENTER": 107.6352, "MEAN_ANOMALY": 252.4793, "EPHEMERIS_TYPE": 0, "CLASSIFICATION_TYPE": "U", "NORAD_CAT_ID": 64666, "ELEMENT_SET_NO": 999, "REV_AT_EPOCH": 5479, "BSTAR": 0.00089165604, "MEAN_MOTION_DOT": 0.00029884, "MEAN_MOTION_DDOT": 0}, {"OBJECT_NAME": "STARLINK-34253", "OBJECT_ID": "2025-139X", "EPOCH": "2026-06-11T23:06:44.874432", "MEAN_MOTION": 15.34408923, "ECCENTRICITY": 0.00012349, "INCLINATION": 53.1599, "RA_OF_ASC_NODE": 48.0266, "ARG_OF_PERICENTER": 80.71, "MEAN_ANOMALY": 279.4042, "EPHEMERIS_TYPE": 0, "CLASSIFICATION_TYPE": "U", "NORAD_CAT_ID": 64685, "ELEMENT_SET_NO": 999, "REV_AT_EPOCH": 5473, "BSTAR": 0.00069506586, "MEAN_MOTION_DOT": 0.00023187, "MEAN_MOTION_DDOT": 0}, {"OBJECT_NAME": "STARLINK-34316", "OBJECT_ID": "2025-142M", "EPOCH": "2026-06-11T23:12:07.132608", "MEAN_MOTION": 14.98336217, "ECCENTRICITY": 0.00031737, "INCLINATION": 70.0013, "RA_OF_ASC_NODE": 76.7058, "ARG_OF_PERICENTER": 259.4212, "MEAN_ANOMALY": 100.6589, "EPHEMERIS_TYPE": 0, "CLASSIFICATION_TYPE": "U", "NORAD_CAT_ID": 64707, "ELEMENT_SET_NO": 999, "REV_AT_EPOCH": 5377, "BSTAR": 0.00029441897, "MEAN_MOTION_DOT": 3.422e-05, "MEAN_MOTION_DDOT": 0}, {"OBJECT_NAME": "STARLINK-34242", "OBJECT_ID": "2025-144D", "EPOCH": "2026-06-11T23:23:24.500832", "MEAN_MOTION": 15.30211753, "ECCENTRICITY": 0.00013907, "INCLINATION": 53.1584, "RA_OF_ASC_NODE": 103.3587, "ARG_OF_PERICENTER": 96.1225, "MEAN_ANOMALY": 263.9934, "EPHEMERIS_TYPE": 0, "CLASSIFICATION_TYPE": "U", "NORAD_CAT_ID": 64727, "ELEMENT_SET_NO": 999, "REV_AT_EPOCH": 5414, "BSTAR": 0.0010895734, "MEAN_MOTION_DOT": 0.00032062, "MEAN_MOTION_DDOT": 0}, {"OBJECT_NAME": "STARLINK-34592", "OBJECT_ID": "2025-144Y", "EPOCH": "2026-06-11T23:18:03.421152", "MEAN_MOTION": 15.30203342, "ECCENTRICITY": 0.00023659, "INCLINATION": 53.1578, "RA_OF_ASC_NODE": 90.5525, "ARG_OF_PERICENTER": 45.5185, "MEAN_ANOMALY": 314.6009, "EPHEMERIS_TYPE": 0, "CLASSIFICATION_TYPE": "U", "NORAD_CAT_ID": 64746, "ELEMENT_SET_NO": 999, "REV_AT_EPOCH": 5432, "BSTAR": 0.00060638121, "MEAN_MOTION_DOT": 0.00017645, "MEAN_MOTION_DDOT": 0}, {"OBJECT_NAME": "STARLINK-34609", "OBJECT_ID": "2025-147P", "EPOCH": "2026-06-11T07:06:41.570208", "MEAN_MOTION": 15.3020442, "ECCENTRICITY": 0.00011848, "INCLINATION": 53.1569, "RA_OF_ASC_NODE": 157.9987, "ARG_OF_PERICENTER": 95.6149, "MEAN_ANOMALY": 264.4987, "EPHEMERIS_TYPE": 0, "CLASSIFICATION_TYPE": "U", "NORAD_CAT_ID": 64768, "ELEMENT_SET_NO": 999, "REV_AT_EPOCH": 5322, "BSTAR": 0.00038992391, "MEAN_MOTION_DOT": 0.00011208, "MEAN_MOTION_DDOT": 0}, {"OBJECT_NAME": "STARLINK-34693", "OBJECT_ID": "2025-150D", "EPOCH": "2026-06-11T16:44:49.886304", "MEAN_MOTION": 14.98337594, "ECCENTRICITY": 0.0003594, "INCLINATION": 70.0008, "RA_OF_ASC_NODE": 257.6087, "ARG_OF_PERICENTER": 274.9164, "MEAN_ANOMALY": 85.1585, "EPHEMERIS_TYPE": 0, "CLASSIFICATION_TYPE": "U", "NORAD_CAT_ID": 64793, "ELEMENT_SET_NO": 999, "REV_AT_EPOCH": 5059, "BSTAR": 0.00030741798, "MEAN_MOTION_DOT": 3.578e-05, "MEAN_MOTION_DDOT": 0}, {"OBJECT_NAME": "STARLINK-34644", "OBJECT_ID": "2025-150Y", "EPOCH": "2026-06-11T16:26:47.732352", "MEAN_MOTION": 14.98335792, "ECCENTRICITY": 0.0003421, "INCLINATION": 70.0005, "RA_OF_ASC_NODE": 257.519, "ARG_OF_PERICENTER": 267.0789, "MEAN_ANOMALY": 92.9979, "EPHEMERIS_TYPE": 0, "CLASSIFICATION_TYPE": "U", "NORAD_CAT_ID": 64812, "ELEMENT_SET_NO": 999, "REV_AT_EPOCH": 5059, "BSTAR": 0.00015878615, "MEAN_MOTION_DOT": 1.802e-05, "MEAN_MOTION_DDOT": 0}, {"OBJECT_NAME": "KUIPER-00085", "OBJECT_ID": "2025-151R", "EPOCH": "2026-06-11T11:18:32.042016", "MEAN_MOTION": 14.7994038, "ECCENTRICITY": 5.28e-05, "INCLINATION": 51.9022, "RA_OF_ASC_NODE": 233.4541, "ARG_OF_PERICENTER": 99.3298, "MEAN_ANOMALY": 260.7724, "EPHEMERIS_TYPE": 0, "CLASSIFICATION_TYPE": "U", "NORAD_CAT_ID": 64831, "ELEMENT_SET_NO": 999, "REV_AT_EPOCH": 4936, "BSTAR": 0.00037436, "MEAN_MOTION_DOT": 2.634e-05, "MEAN_MOTION_DDOT": 0}, {"OBJECT_NAME": "STARLINK-34757", "OBJECT_ID": "2025-152J", "EPOCH": "2026-06-11T15:25:16.391712", "MEAN_MOTION": 15.05657256, "ECCENTRICITY": 0.00025884, "INCLINATION": 97.3725, "RA_OF_ASC_NODE": 17.2794, "ARG_OF_PERICENTER": 86.2602, "MEAN_ANOMALY": 273.8921, "EPHEMERIS_TYPE": 0, "CLASSIFICATION_TYPE": "U", "NORAD_CAT_ID": 64850, "ELEMENT_SET_NO": 999, "REV_AT_EPOCH": 4955, "BSTAR": 0.0002409432, "MEAN_MOTION_DOT": 3.421e-05, "MEAN_MOTION_DDOT": 0}, {"OBJECT_NAME": "TRACERS 1", "OBJECT_ID": "2025-154B", "EPOCH": "2026-06-11T21:09:11.594880", "MEAN_MOTION": 14.93457163, "ECCENTRICITY": 0.00039226, "INCLINATION": 97.6692, "RA_OF_ASC_NODE": 226.6559, "ARG_OF_PERICENTER": 276.5395, "MEAN_ANOMALY": 83.5379, "EPHEMERIS_TYPE": 0, "CLASSIFICATION_TYPE": "U", "NORAD_CAT_ID": 64870, "ELEMENT_SET_NO": 999, "REV_AT_EPOCH": 4820, "BSTAR": 0.0001071419, "MEAN_MOTION_DOT": 1.071e-05, "MEAN_MOTION_DDOT": 0}, {"OBJECT_NAME": "2025-155P", "OBJECT_ID": "2025-155P", "EPOCH": "2026-06-11T23:01:56.145504", "MEAN_MOTION": 15.26463522, "ECCENTRICITY": 0.00070595, "INCLINATION": 97.4583, "RA_OF_ASC_NODE": 130.8093, "ARG_OF_PERICENTER": 181.0355, "MEAN_ANOMALY": 179.087, "EPHEMERIS_TYPE": 0, "CLASSIFICATION_TYPE": "U", "NORAD_CAT_ID": 64889, "ELEMENT_SET_NO": 999, "REV_AT_EPOCH": 7991, "BSTAR": 0.00017230146, "MEAN_MOTION_DOT": 4.42e-05, "MEAN_MOTION_DDOT": 0}, {"OBJECT_NAME": "STARLINK-34702", "OBJECT_ID": "2025-157E", "EPOCH": "2026-06-11T13:35:41.164224", "MEAN_MOTION": 15.31686185, "ECCENTRICITY": 0.00013, "INCLINATION": 53.1603, "RA_OF_ASC_NODE": 269.1324, "ARG_OF_PERICENTER": 70.6042, "MEAN_ANOMALY": 289.51, "EPHEMERIS_TYPE": 0, "CLASSIFICATION_TYPE": "U", "NORAD_CAT_ID": 64908, "ELEMENT_SET_NO": 999, "REV_AT_EPOCH": 5050, "BSTAR": 0.00097195, "MEAN_MOTION_DOT": 0.00029904, "MEAN_MOTION_DDOT": 0}, {"OBJECT_NAME": "STARLINK-34661", "OBJECT_ID": "2025-157Z", "EPOCH": "2026-06-11T14:12:42.320736", "MEAN_MOTION": 15.34393738, "ECCENTRICITY": 8.5e-05, "INCLINATION": 53.159, "RA_OF_ASC_NODE": 269.2795, "ARG_OF_PERICENTER": 83.7287, "MEAN_ANOMALY": 276.3812, "EPHEMERIS_TYPE": 0, "CLASSIFICATION_TYPE": "U", "NORAD_CAT_ID": 64927, "ELEMENT_SET_NO": 999, "REV_AT_EPOCH": 5022, "BSTAR": 0.00079541, "MEAN_MOTION_DOT": 0.00026588, "MEAN_MOTION_DDOT": 0}, {"OBJECT_NAME": "STARLINK-34753", "OBJECT_ID": "2025-158Q", "EPOCH": "2026-06-11T13:42:29.304864", "MEAN_MOTION": 15.05657346, "ECCENTRICITY": 0.0002583, "INCLINATION": 97.3741, "RA_OF_ASC_NODE": 25.8252, "ARG_OF_PERICENTER": 77.001, "MEAN_ANOMALY": 283.1505, "EPHEMERIS_TYPE": 0, "CLASSIFICATION_TYPE": "U", "NORAD_CAT_ID": 64946, "ELEMENT_SET_NO": 999, "REV_AT_EPOCH": 4948, "BSTAR": 0.00078144, "MEAN_MOTION_DOT": 0.00011238, "MEAN_MOTION_DDOT": 0}, {"OBJECT_NAME": "STARLINK-34623", "OBJECT_ID": "2025-161D", "EPOCH": "2026-06-11T11:17:10.324032", "MEAN_MOTION": 15.30197934, "ECCENTRICITY": 0.0001479, "INCLINATION": 53.1592, "RA_OF_ASC_NODE": 218.9215, "ARG_OF_PERICENTER": 86.5989, "MEAN_ANOMALY": 273.5181, "EPHEMERIS_TYPE": 0, "CLASSIFICATION_TYPE": "U", "NORAD_CAT_ID": 65018, "ELEMENT_SET_NO": 999, "REV_AT_EPOCH": 4968, "BSTAR": 0.00058806, "MEAN_MOTION_DOT": 0.00017096, "MEAN_MOTION_DDOT": 0}]