STARLINK-34390          
1 64666U 25139C   26162.91462645  .00029884  00000+0  89166-3 0  9995
2 64666  53.1597  47.7296 0001297 107.6352 252.4793 15.34414511 54794
STARLINK-34253          
1 64685U 25139X   26162.96301938  .00023187  00000+0  69507-3 0  9995
2 64685  53.1599  48.0266 0001234  80.7100 279.4042 15.34408923 54731
STARLINK-34316          
1 64707U 25142M   26162.96674922  .00003422  00000+0  29442-3 0  9994
2 64707  70.0013  76.7058 0003173 259.4212 100.6589 14.98336217 53774
STARLINK-34242          
1 64727U 25144D   26162.97458913  .00032062  00000+0  10896-2 0  9993
2 64727  53.1584 103.3587 0001390  96.1225 263.9934 15.30211753 54147
STARLINK-34592          
1 64746U 25144Y   26162.97087293  .00017645  00000+0  60638-3 0  9993
2 64746  53.1578  90.5525 0002365  45.5185 314.6009 15.30203342 54328
STARLINK-34609          
1 64768U 25147P   26162.29631447  .00011208  00000+0  38992-3 0  9998
2 64768  53.1569 157.9987 0001184  95.6149 264.4987 15.30204420 53229
STARLINK-34693          
1 64793U 25150D   26162.69779961  .00003578  00000+0  30742-3 0  9994
2 64793  70.0008 257.6087 0003594 274.9164  85.1585 14.98337594 50599
STARLINK-34644          
1 64812U 25150Y   26162.68527468  .00001802  00000+0  15879-3 0  9990
2 64812  70.0005 257.5190 0003421 267.0789  92.9979 14.98335792 50598
KUIPER-00085            
1 64831U 25151R   26162.47120419  .00002634  00000+0  37436-3 0  9991
2 64831  51.9022 233.4541 0000528  99.3298 260.7724 14.79940380 49365
STARLINK-34757          
1 64850U 25152J   26162.64255083  .00003421  00000+0  24094-3 0  9999
2 64850  97.3725  17.2794 0002588  86.2602 273.8921 15.05657256 49552
TRACERS 1               
1 64870U 25154B   26162.88138420  .00001071  00000+0  10714-3 0  9997
2 64870  97.6692 226.6559 0003922 276.5395  83.5379 14.93457163 48206
2025-155P               
1 64889U 25155P   26162.95967761  .00004420  00000+0  17230-3 0  9995
2 64889  97.4583 130.8093 0007059 181.0355 179.0870 15.26463522 79915
STARLINK-34702          
1 64908U 25157E   26162.56644866  .00029904  00000+0  97195-3 0  9996
2 64908  53.1603 269.1324 0001300  70.6042 289.5100 15.31686185 50506
STARLINK-34661          
1 64927U 25157Z   26162.59215649  .00026588  00000+0  79541-3 0  9993
2 64927  53.1590 269.2795 0000850  83.7287 276.3812 15.34393738 50225
STARLINK-34753          
1 64946U 25158Q   26162.57117251  .00011238  00000+0  78144-3 0  9997
2 64946  97.3741  25.8252 0002583  77.0010 283.1505 15.05657346 49480
STARLINK-34623          
1 65018U 25161D   26162.47025838  .00017096  00000+0  58806-3 0  9991
2 65018  53.1592 218.9215 0001479  86.5989 273.5181 15.30197934 49687
